{
  "type": "Feature",
  "properties": { "route_code": "R110-A", "note": "Synthetic collection run for simulate-trip" },
  "geometry": {
    "type": "LineString",
    "coordinates": [
      [77.5905, 12.9605],
      [77.5915, 12.9608],
      [77.5925, 12.9612],
      [77.5935, 12.9618],
      [77.5945, 12.9625],
      [77.5955, 12.9632],
      [77.5962, 12.964],
      [77.5968, 12.965],
      [77.5972, 12.966],
      [77.5975, 12.967],
      [77.5968, 12.9678],
      [77.5958, 12.9682],
      [77.5948, 12.9685],
      [77.5938, 12.9688],
      [77.5928, 12.969],
      [77.5918, 12.9688],
      [77.5908, 12.9682],
      [77.5902, 12.9672],
      [77.59, 12.9660],
      [77.5902, 12.9640],
      [77.5904, 12.9620]
    ]
  }
}
